{"type": "FeatureCollection", "features": [ {"type": "Feature", "properties": {"norad_id": 34953, "name": "COSMOS 2251 DEB", "group": "cosmos-2251-debris", "lat": 40.068757462420486, "lon": 59.28078204861055, "alt_km": 620.8323808353907, "timestamp": "2025-12-03T10:52:57.851888+00:00", "meta": {"OBJECT_NAME": "COSMOS 2251 DEB", "OBJECT_ID": "1993-036AEG", "EPOCH": "2025-12-03T04:17:18.808224", "MEAN_MOTION": 14.6881213, "ECCENTRICITY": 0.0057615, "INCLINATION": 74.0941, "RA_OF_ASC_NODE": 45.9321, "ARG_OF_PERICENTER": 40.9172, "MEAN_ANOMALY": 348.9233, "EPHEMERIS_TYPE": 0, "CLASSIFICATION_TYPE": "U", "NORAD_CAT_ID": 34953, "ELEMENT_SET_NO": 999, "REV_AT_EPOCH": 87988, "BSTAR": 0.0010927, "MEAN_MOTION_DOT": 6.516e-05, "MEAN_MOTION_DDOT": 0}, "tle": {"line1": "1 34953U 93036AEG 25337.17868991  .00006516  00000+0  10927-2 0  9992", "line2": "2 34953  74.0941  45.9321 0057615  40.9172 348.9233 14.68812130879888"}}, "geometry": {"type": "Point", "coordinates": [59.28078204861055, 40.068757462420486]}}, {"type": "Feature", "properties": {"norad_id": 34955, "name": "COSMOS 2251 DEB", "group": "cosmos-2251-debris", "lat": -22.30950914116849, "lon": 92.1342824055007, "alt_km": 609.0187344797687, "timestamp": "2025-12-03T10:52:57.851898+00:00", "meta": {"OBJECT_NAME": "COSMOS 2251 DEB", "OBJECT_ID": "1993-036AEJ", "EPOCH": "2025-12-03T01:58:24.292704", "MEAN_MOTION": 15.00189355, "ECCENTRICITY": 0.0078305, "INCLINATION": 74.0373, "RA_OF_ASC_NODE": 266.1437, "ARG_OF_PERICENTER": 338.174, "MEAN_ANOMALY": 21.6115, "EPHEMERIS_TYPE": 0, "CLASSIFICATION_TYPE": "U", "NORAD_CAT_ID": 34955, "ELEMENT_SET_NO": 999, "REV_AT_EPOCH": 89889, "BSTAR": 0.0013092, "MEAN_MOTION_DOT": 0.00017463, "MEAN_MOTION_DDOT": 0}, "tle": {"line1": "1 34955U 93036AEJ 25337.08222561  .00017463  00000+0  13092-2 0  9990", "line2": "2 34955  74.0373 266.1437 0078305 338.1740  21.6115 15.00189355898895"}}, "geometry": {"type": "Point", "coordinates": [92.1342824055007, -22.30950914116849]}}, {"type": "Feature", "properties": {"norad_id": 34962, "name": "COSMOS 2251 DEB", "group": "cosmos-2251-debris", "lat": -6.238765026778221, "lon": -151.08390740473564, "alt_km": 729.0218340280298, "timestamp": "2025-12-03T10:52:57.851909+00:00", "meta": {"OBJECT_NAME": "COSMOS 2251 DEB", "OBJECT_ID": "1993-036AER", "EPOCH": "2025-12-02T01:42:53.375904", "MEAN_MOTION": 14.46464357, "ECCENTRICITY": 0.00185426, "INCLINATION": 74.0305, "RA_OF_ASC_NODE": 213.2902, "ARG_OF_PERICENTER": 327.8619, "MEAN_ANOMALY": 32.1407, "EPHEMERIS_TYPE": 0, "CLASSIFICATION_TYPE": "U", "NORAD_CAT_ID": 34962, "ELEMENT_SET_NO": 999, "REV_AT_EPOCH": 87424, "BSTAR": 0.00050722321, "MEAN_MOTION_DOT": 1.801e-05, "MEAN_MOTION_DDOT": 0}, "tle": {"line1": "1 34962U 93036AER 25336.07145111  .00001801  00000+0  50722-3 0  9992", "line2": "2 34962  74.0305 213.2902 0018542 327.8619  32.1407 14.46464357874246"}}, "geometry": {"type": "Point", "coordinates": [-151.08390740473564, -6.238765026778221]}}, {"type": "Feature", "properties": {"norad_id": 34963, "name": "COSMOS 2251 DEB", "group": "cosmos-2251-debris", "lat": 70.74696379045577, "lon": -174.24351812248804, "alt_km": 743.2145484335315, "timestamp": "2025-12-03T10:52:57.851921+00:00", "meta": {"OBJECT_NAME": "COSMOS 2251 DEB", "OBJECT_ID": "1993-036AES", "EPOCH": "2025-12-02T22:49:54.886080", "MEAN_MOTION": 14.50908636, "ECCENTRICITY": 0.0042456, "INCLINATION": 74.1723, "RA_OF_ASC_NODE": 61.0035, "ARG_OF_PERICENTER": 259.1817, "MEAN_ANOMALY": 100.4565, "EPHEMERIS_TYPE": 0, "CLASSIFICATION_TYPE": "U", "NORAD_CAT_ID": 34963, "ELEMENT_SET_NO": 999, "REV_AT_EPOCH": 86659, "BSTAR": 0.0017899, "MEAN_MOTION_DOT": 7.128e-05, "MEAN_MOTION_DDOT": 0}, "tle": {"line1": "1 34963U 93036AES 25336.95132970  .00007128  00000+0  17899-2 0  9994", "line2": "2 34963  74.1723  61.0035 0042456 259.1817 100.4565 14.50908636866597"}}, "geometry": {"type": "Point", "coordinates": [-174.24351812248804, 70.74696379045577]}}, {"type": "Feature", "properties": {"norad_id": 34964, "name": "COSMOS 2251 DEB", "group": "cosmos-2251-debris", "lat": 5.720683710386411, "lon": 5.653449741911998, "alt_km": 1014.3173976140088, "timestamp": "2025-12-03T10:52:57.851932+00:00", "meta": {"OBJECT_NAME": "COSMOS 2251 DEB", "OBJECT_ID": "1993-036AET", "EPOCH": "2025-12-01T10:51:07.970112", "MEAN_MOTION": 14.00515212, "ECCENTRICITY": 0.02132053, "INCLINATION": 73.9732, "RA_OF_ASC_NODE": 7.4842, "ARG_OF_PERICENTER": 228.1536, "MEAN_ANOMALY": 130.1229, "EPHEMERIS_TYPE": 0, "CLASSIFICATION_TYPE": "U", "NORAD_CAT_ID": 34964, "ELEMENT_SET_NO": 999, "REV_AT_EPOCH": 84320, "BSTAR": 0.0017784594, "MEAN_MOTION_DOT": 3.191e-05, "MEAN_MOTION_DDOT": 0}, "tle": {"line1": "1 34964U 93036AET 25335.45217558  .00003191  00000+0  17785-2 0  9995", "line2": "2 34964  73.9732   7.4842 0213205 228.1536 130.1229 14.00515212843200"}}, "geometry": {"type": "Point", "coordinates": [5.653449741911998, 5.720683710386411]}}, {"type": "Feature", "properties": {"norad_id": 34965, "name": "COSMOS 2251 DEB", "group": "cosmos-2251-debris", "lat": -73.85234791876866, "lon": 46.863336488731505, "alt_km": 718.2791331657972, "timestamp": "2025-12-03T10:52:57.851943+00:00", "meta": {"OBJECT_NAME": "COSMOS 2251 DEB", "OBJECT_ID": "1993-036AEU", "EPOCH": "2025-12-02T03:49:02.675136", "MEAN_MOTION": 14.48660518, "ECCENTRICITY": 0.00264925, "INCLINATION": 74.0504, "RA_OF_ASC_NODE": 148.2743, "ARG_OF_PERICENTER": 277.1444, "MEAN_ANOMALY": 82.6704, "EPHEMERIS_TYPE": 0, "CLASSIFICATION_TYPE": "U", "NORAD_CAT_ID": 34965, "ELEMENT_SET_NO": 999, "REV_AT_EPOCH": 86960, "BSTAR": 0.0003671965, "MEAN_MOTION_DOT": 1.361e-05, "MEAN_MOTION_DDOT": 0}, "tle": {"line1": "1 34965U 93036AEU 25336.15905874  .00001361  00000+0  36720-3 0  9997", "line2": "2 34965  74.0504 148.2743 0026492 277.1444  82.6704 14.48660518869609"}}, "geometry": {"type": "Point", "coordinates": [46.863336488731505, -73.85234791876866]}}, {"type": "Feature", "properties": {"norad_id": 34967, "name": "COSMOS 2251 DEB", "group": "cosmos-2251-debris", "lat": -32.02734251669047, "lon": -99.16228734910058, "alt_km": 751.8685159228562, "timestamp": "2025-12-03T10:52:57.851954+00:00", "meta": {"OBJECT_NAME": "COSMOS 2251 DEB", "OBJECT_ID": "1993-036AEW", "EPOCH": "2025-12-01T02:30:41.683104", "MEAN_MOTION": 14.44168549, "ECCENTRICITY": 0.00374829, "INCLINATION": 73.9933, "RA_OF_ASC_NODE": 275.5612, "ARG_OF_PERICENTER": 64.8384, "MEAN_ANOMALY": 295.6653, "EPHEMERIS_TYPE": 0, "CLASSIFICATION_TYPE": "U", "NORAD_CAT_ID": 34967, "ELEMENT_SET_NO": 999, "REV_AT_EPOCH": 64789, "BSTAR": 0.00079995093, "MEAN_MOTION_DOT": 2.741e-05, "MEAN_MOTION_DDOT": 0}, "tle": {"line1": "1 34967U 93036AEW 25335.10464911  .00002741  00000+0  79995-3 0  9999", "line2": "2 34967  73.9933 275.5612 0037482  64.8384 295.6653 14.44168549647896"}}, "geometry": {"type": "Point", "coordinates": [-99.16228734910058, -32.02734251669047]}}, {"type": "Feature", "properties": {"norad_id": 34968, "name": "COSMOS 2251 DEB", "group": "cosmos-2251-debris", "lat": 34.68126467446779, "lon": -83.80757888157771, "alt_km": 632.270379386935, "timestamp": "2025-12-03T10:52:57.852011+00:00", "meta": {"OBJECT_NAME": "COSMOS 2251 DEB", "OBJECT_ID": "1993-036AEX", "EPOCH": "2025-12-02T01:48:56.339712", "MEAN_MOTION": 14.59372646, "ECCENTRICITY": 0.00862303, "INCLINATION": 74.039, "RA_OF_ASC_NODE": 267.3956, "ARG_OF_PERICENTER": 30.5548, "MEAN_ANOMALY": 330.0599, "EPHEMERIS_TYPE": 0, "CLASSIFICATION_TYPE": "U", "NORAD_CAT_ID": 34968, "ELEMENT_SET_NO": 999, "REV_AT_EPOCH": 88322, "BSTAR": 0.00022982614, "MEAN_MOTION_DOT": 1.114e-05, "MEAN_MOTION_DDOT": 0}, "tle": {"line1": "1 34968U 93036AEX 25336.07565208  .00001114  00000+0  22983-3 0  9996", "line2": "2 34968  74.0390 267.3956 0086230  30.5548 330.0599 14.59372646883226"}}, "geometry": {"type": "Point", "coordinates": [-83.80757888157771, 34.68126467446779]}}, {"type": "Feature", "properties": {"norad_id": 34969, "name": "COSMOS 2251 DEB", "group": "cosmos-2251-debris", "lat": -43.74401476029196, "lon": 24.19217345036436, "alt_km": 830.4119586945408, "timestamp": "2025-12-03T10:52:57.852022+00:00", "meta": {"OBJECT_NAME": "COSMOS 2251 DEB", "OBJECT_ID": "1993-036AEY", "EPOCH": "2025-11-27T22:39:52.818912", "MEAN_MOTION": 14.32217313, "ECCENTRICITY": 0.0074445, "INCLINATION": 74.0147, "RA_OF_ASC_NODE": 50.1773, "ARG_OF_PERICENTER": 186.867, "MEAN_ANOMALY": 173.1469, "EPHEMERIS_TYPE": 0, "CLASSIFICATION_TYPE": "U", "NORAD_CAT_ID": 34969, "ELEMENT_SET_NO": 999, "REV_AT_EPOCH": 64925, "BSTAR": 0.00041332, "MEAN_MOTION_DOT": 1.123e-05, "MEAN_MOTION_DDOT": 0}, "tle": {"line1": "1 34969U 93036AEY 25331.94436133  .00001123  00000+0  41332-3 0  9991", "line2": "2 34969  74.0147  50.1773 0074445 186.8670 173.1469 14.32217313649253"}}, "geometry": {"type": "Point", "coordinates": [24.19217345036436, -43.74401476029196]}}, {"type": "Feature", "properties": {"norad_id": 34971, "name": "COSMOS 2251 DEB", "group": "cosmos-2251-debris", "lat": -42.873237436088324, "lon": 138.14197082616437, "alt_km": 684.4381821943225, "timestamp": "2025-12-03T10:52:57.852034+00:00", "meta": {"OBJECT_NAME": "COSMOS 2251 DEB", "OBJECT_ID": "1993-036AFA", "EPOCH": "2025-12-02T16:30:25.799040", "MEAN_MOTION": 14.55607383, "ECCENTRICITY": 0.0070045, "INCLINATION": 73.9781, "RA_OF_ASC_NODE": 304.1252, "ARG_OF_PERICENTER": 172.3725, "MEAN_ANOMALY": 1.4468, "EPHEMERIS_TYPE": 0, "CLASSIFICATION_TYPE": "U", "NORAD_CAT_ID": 34971, "ELEMENT_SET_NO": 999, "REV_AT_EPOCH": 66026, "BSTAR": 0.00022954, "MEAN_MOTION_DOT": 1.004e-05, "MEAN_MOTION_DDOT": 0}, "tle": {"line1": "1 34971U 93036AFA 25336.68779860  .00001004  00000+0  22954-3 0  9994", "line2": "2 34971  73.9781 304.1252 0070045 172.3725   1.4468 14.55607383660266"}}, "geometry": {"type": "Point", "coordinates": [138.14197082616437, -42.873237436088324]}}]}